LEMUR-2-HUBBLE-4        
1 64565U 25135AP  26187.63341429  .00001243  00000+0  12298-3 0  9992
2 64565  97.7713 301.3116 0001904 187.3980 172.7211 14.93667872 56776
LEMUR-2-SEJONG-2        
1 64586U 25135BL  26187.82561774  .00002843  00000+0  25302-3 0  9990
2 64586  97.7708 302.7156 0003122 256.0613 104.0262 14.96872498 56884
LEMUR-2-HUBBLE-5        
1 64840U 25135BT  26187.31043794  .00001509  00000+0  14618-3 0  9990
2 64840  97.7734 301.6518 0004093 274.4902  85.5850 14.94194144 56765
LEMUR-2-KARENDARRELL    
1 64841U 25135BU  26187.26028863  .00008052  00000+0  64409-3 0  9998
2 64841  97.7697 303.4406 0011512 133.2571 226.9615 15.00415021 56878
LEMUR-2-LUCILLE-ROSE    
1 65403U 25135BV  26187.56715682  .00005807  00000+0  46570-3 0  9992
2 65403  97.7720 303.7815 0013752 215.7297 144.3008 15.00418506 51545
LEMUR-2-AFFIE-WAUWIE    
1 66295U 25248C   26186.82496654  .00022785  00000+0  82702-3 0  9991
2 66295  45.3926  13.9564 0008364 202.7682 157.2838 15.27976863 37441
LEMUR-2-DEANANDMAEVE    
1 66678U 25276N   26187.14438524  .00007494  00000+0  35110-3 0  9996
2 66678  97.4199 260.3076 0004246 297.3184  62.7619 15.19983006 33298
LEMUR-2-STAS-GORBUK     
1 66686U 25276W   26187.69026917  .00005069  00000+0  24126-3 0  9995
2 66686  97.4234 260.8973 0003531 291.0562  69.0295 15.19599800 33379
LEMUR-2-TEODOR          
1 66768U 25276DG  26187.65263794  .00004534  00000+0  20592-3 0  9997
2 66768  97.4138 261.1214 0002363  97.1233 263.0271 15.21275980 33404
LEMUR-2-LAILA           
1 66776U 25276DQ  26187.68947196  .00005236  00000+0  23577-3 0  9990
2 66776  97.4163 261.2907 0002860 107.0369 253.1180 15.21500711 33417
LEMUR-2-CELIJO-SB-PK    
1 66781U 25276DW  26187.71436506  .00004630  00000+0  37444-3 0  9993
2 66781  97.5200 257.8487 0007471  85.1218 275.0859 15.00225368 25553
LEMUR-2-FINNIAN         
1 66782U 25276DX  26187.15305343  .00002987  00000+0  24129-3 0  9995
2 66782  97.5336 257.5504 0008128  31.0182 329.1520 15.00543596 22842
LEMUR-2-STARLIGHT       
1 66783U 25276DY  26187.72667436  .00005295  00000+0  43740-3 0  9998
2 66783  97.5223 257.6975 0014691  71.9073 288.3749 14.99285417 33129
LEMUR-2-TARTIFLETTE     
1 66784U 25276DZ  26187.72500240  .00004212  00000+0  34914-3 0  9999
2 66784  97.5225 257.7037 0013730  79.6577 280.6194 14.99277169 33123
LEMUR-2-VUKASIN         
1 66785U 25276EA  26187.76888705  .00004091  00000+0  32922-3 0  9991
2 66785  97.5243 258.0885 0004393  79.4597 280.7122 15.00493817 33084
LEMUR-2-HOTSPUR-TOM     
1 66786U 25276EB  26187.71887010  .00004474  00000+0  37145-3 0  9992
2 66786  97.5216 257.6747 0013989  70.9230 289.3507 14.99183448 33050
